     3.03           N: GNSS NAV DATA    G: GPS              RINEX VERSION / TYPE
sbf2rin-13.0.0x                         20200522 021103 UTC PGM / RUN BY / DATE 
GPSA   6.5193E-09  2.2352E-08 -5.9605E-08 -1.1921E-07       IONOSPHERIC CORR    
GPSB   8.6016E+04  9.8304E+04 -6.5536E+04 -5.2429E+05       IONOSPHERIC CORR    
                                                            COMMENT             
                                                            COMMENT             
ABPO                                    MARKER NAME         COMMENT
33302M001                               MARKER NUMBER       COMMENT
  4097216.5539  4429119.1897 -2065771.1988                  COMMENT
                                                            END OF HEADER       
G06 2020 05 22 01 59 44-2.757306210697E-04-6.593836587854E-12 0.000000000000E+00
     8.000000000000E+00-5.809375000000E+01 3.890519198598E-09-1.479572175674E+00
    -3.021210432053E-06 1.916495035402E-03 1.162849366665E-05 5.153549310684E+03
     4.391840000000E+05-6.332993507385E-08-3.093370685363E+00 2.421438694000E-08
     9.800643419680E-01 1.702187500000E+02-1.053776180179E+00-7.558886286526E-09
     2.807259790781E-10 1.000000000000E+00 2.106000000000E+03 0.000000000000E+00
     2.000000000000E+00 0.000000000000E+00 4.190951585770E-09 8.000000000000E+00
     4.366080000000E+05 4.000000000000E+00
G04 2020 05 22 03 44 32-9.248452261090E-05-5.002220859751E-12 0.000000000000E+00
     1.550000000000E+02-2.796875000000E+01 4.855202238662E-09 4.095442030228E-01
    -1.428648829460E-06 7.494010496885E-04 6.848946213722E-06 5.153677820206E+03
     4.454720000000E+05 1.303851604462E-08-9.656974799420E-01-7.264316082001E-08
     9.597118716231E-01 2.421250000000E+02-2.600696261964E+00-8.135338869518E-09
    -6.496699185027E-10 1.000000000000E+00 2.106000000000E+03 0.000000000000E+00
     2.000000000000E+00 0.000000000000E+00-4.190951585770E-09 9.230000000000E+02
     4.383180000000E+05 4.000000000000E+00
